IRIDIUM 136             
1 42962U 17061H   24252.63891967  .00002294  00000+0  81179-3 0  9997
2 42962  86.3938 295.4419 0001988  85.9637 274.1786 14.34219260362165
